{
"type": "FeatureCollection",
"name": "affordable_housing_inventory",
"crs": { "type": "name", "properties": { "name": "urn:ogc:def:crs:OGC:1.3:CRS84" } },
"features": [
{ "type": "Feature", "properties": { "zip": 92069, "unit_types": "1-3 BR", "ami_chart": "https://sdcounty.maps.arcgis.com/sharing/rest/content/items/e99077df3b454a6fb79c88a6232daefc/data", "website2_pbv": "", "address": "604 Richmar Ave", "data_as_of": 1730332800000, "ces_text": null, "city": "San Marcos", "website_text": "Webpage (non-County site)", "occupants_served": "Individuals/families", "max_ami": "60%", "website2_ces": "", "name": "Alora", "phone_number": "760-273-1050", "state": "CA", "total_units": "100", "photo_url": "https://sdcounty.maps.arcgis.com/sharing/rest/content/items/0db4ba0428824589b8d2011441fe587a/data", "pbv_text": null, "community_website": "https://www.affirmedhousing.com/completed/alora/", "objectid": 1, "status": "Existing" }, "geometry": { "type": "Point", "coordinates": [ -117.173291625162321, 33.146602589628195 ] } },
{ "type": "Feature", "properties": { "zip": 91901, "unit_types": "1-3 BR", "ami_chart": "https://sdcounty.maps.arcgis.com/sharing/rest/content/items/e99077df3b454a6fb79c88a6232daefc/data", "website2_pbv": "", "address": "1460-1464 Marshall Rd", "data_as_of": 1730332800000, "ces_text": null, "city": "Alpine", "website_text": null, "occupants_served": "Individuals/families", "max_ami": "60%", "website2_ces": "", "name": "Alpine Family Apartments", "phone_number": "619-612-7550", "state": "CA", "total_units": "38", "photo_url": "https://sdcounty.maps.arcgis.com/sharing/rest/content/items/c6da86770bfd4919b91332526ff6676f/data", "pbv_text": null, "community_website": "", "objectid": 2, "status": "Existing" }, "geometry": { "type": "Point", "coordinates": [ -116.766612414401038, 32.833620934532981 ] } },
{ "type": "Feature", "properties": { "zip": 92111, "unit_types": "Studio - 3 BR", "ami_chart": "https://sdcounty.maps.arcgis.com/sharing/rest/content/items/e99077df3b454a6fb79c88a6232daefc/data", "website2_pbv": "", "address": "2645 Ulric St.", "data_as_of": 1730332800000, "ces_text": null, "city": "San Diego", "website_text": "Webpage (non-County site)", "occupants_served": "Individuals/families, Veterans, Transition Age Youth", "max_ami": "60%", "website2_ces": "", "name": "Amanecer", "phone_number": "619-816-2922", "state": "CA", "total_units": "96", "photo_url": "https://sdcounty.maps.arcgis.com/sharing/rest/content/items/0a7e5b95a2e546c786447f38325bec52/data", "pbv_text": null, "community_website": "https://chworks.org/property/amanecer/", "objectid": 3, "status": "Existing" }, "geometry": { "type": "Point", "coordinates": [ -117.172104164449905, 32.791689492235726 ] } },
{ "type": "Feature", "properties": { "zip": 92021, "unit_types": "1-2 BR", "ami_chart": "https://sdcounty.maps.arcgis.com/sharing/rest/content/items/ce27c35ebd2c418e84b5255bc3c5cb21/data", "website2_pbv": "", "address": "1012 N Anza St", "data_as_of": 1730332800000, "ces_text": null, "city": "El Cajon", "website_text": null, "occupants_served": "Seniors 55+", "max_ami": "55%", "website2_ces": "", "name": "Anza Terrace", "phone_number": "619-440-5921", "state": "CA", "total_units": "26", "photo_url": "https://sdcounty.maps.arcgis.com/sharing/rest/content/items/00e373eb65984473bb4eab0566c96ada/data", "pbv_text": null, "community_website": "", "objectid": 4, "status": "Existing" }, "geometry": { "type": "Point", "coordinates": [ -116.948248626491505, 32.808916495752598 ] } },
{ "type": "Feature", "properties": { "zip": 91911, "unit_types": "1-3 BR", "ami_chart": "https://sdcounty.maps.arcgis.com/sharing/rest/content/items/e99077df3b454a6fb79c88a6232daefc/data", "website2_pbv": "", "address": "748-760 Anita Street", "data_as_of": 1730332800000, "ces_text": "Developments that include units for persons experiencing homelessness go through Coordinated Entry System. *County does not track availability.", "city": "Chula Vista", "website_text": "Webpage (non-County site)", "occupants_served": "Individuals/families, Supportive Housing", "max_ami": "60%", "website2_ces": "https://211.my.site.com/s/search#keyword=Coordinated%20Entry%20Access%20Site", "name": "Casa Anita", "phone_number": "619-830-3820", "state": "CA", "total_units": "96", "photo_url": "https://sdcounty.maps.arcgis.com/sharing/rest/content/items/352183dfb7a8427c9feb8a316c4fa0a0/data", "pbv_text": null, "community_website": "https://www.wakelandhdc.com/casa-anita.html", "objectid": 5, "status": "Existing" }, "geometry": { "type": "Point", "coordinates": [ -117.086058355755242, 32.598828206282704 ] } },
{ "type": "Feature", "properties": { "zip": 92071, "unit_types": "1-3 BR", "ami_chart": "https://sdcounty.maps.arcgis.com/sharing/rest/content/items/bd9dc8fda8c14eb592f764bf2d620c90/data", "website2_pbv": "", "address": "8618 Fanita Drive", "data_as_of": 1730332800000, "ces_text": null, "city": "Santee", "website_text": "Webpage (non-County site)", "occupants_served": "Individuals/families", "max_ami": "80%", "website2_ces": "", "name": "Cedar Creek Apartments", "phone_number": "619-334-8395", "state": "CA", "total_units": "48", "photo_url": "https://sdcounty.maps.arcgis.com/sharing/rest/content/items/57f8fb18039e49b0bf40638157a4a43e/data", "pbv_text": null, "community_website": "https://www.cedarcreekapartmenthomes.com/", "objectid": 6, "status": "Existing" }, "geometry": { "type": "Point", "coordinates": [ -117.001226256722319, 32.831556609777216 ] } },
{ "type": "Feature", "properties": { "zip": 92028, "unit_types": "1 BR", "ami_chart": "https://sdcounty.maps.arcgis.com/sharing/rest/content/items/bd9dc8fda8c14eb592f764bf2d620c90/data", "website2_pbv": "", "address": "420 N Pico Ave, #4", "data_as_of": 1730332800000, "ces_text": null, "city": "Fallbrook", "website_text": null, "occupants_served": "Seniors 55+", "max_ami": "80%", "website2_ces": "", "name": "De Luz Senior Apartments ", "phone_number": "760-723-1077", "state": "CA", "total_units": "25", "photo_url": "https://sdcounty.maps.arcgis.com/sharing/rest/content/items/ae3286024f9443ae94ab13952a7e6d9f/data", "pbv_text": null, "community_website": "", "objectid": 7, "status": "Existing" }, "geometry": { "type": "Point", "coordinates": [ -117.25258174175103, 33.385272757103813 ] } },
{ "type": "Feature", "properties": { "zip": 92127, "unit_types": "1-3 BR", "ami_chart": "https://sdcounty.maps.arcgis.com/sharing/rest/content/items/256f12145b53451988c00728a1d3fdab/data", "website2_pbv": "", "address": "16507 Dove Canyon Road", "data_as_of": 1730332800000, "ces_text": null, "city": "San Diego", "website_text": "Webpage (non-County site)", "occupants_served": "Individuals/families", "max_ami": "50%", "website2_ces": "", "name": "Dove Canyon Apartments ", "phone_number": "858-521-0787", "state": "CA", "total_units": "120", "photo_url": "https://sdcounty.maps.arcgis.com/sharing/rest/content/items/31b83a4c1ead4281bb951dd16f1aa06c/data", "pbv_text": null, "community_website": "https://bridgehousing.com/properties/dove-canyon/", "objectid": 8, "status": "Existing" }, "geometry": { "type": "Point", "coordinates": [ -117.111259505380048, 33.011836106232856 ] } },
{ "type": "Feature", "properties": { "zip": 92078, "unit_types": "1-3 BR", "ami_chart": "https://sdcounty.maps.arcgis.com/sharing/rest/content/items/e99077df3b454a6fb79c88a6232daefc/data", "website2_pbv": "", "address": "16 Creekside Drive", "data_as_of": 1730332800000, "ces_text": null, "city": "San Marcos", "website_text": "Webpage (non-County site)", "occupants_served": "Individuals/families, Veterans", "max_ami": "60%", "website2_ces": "", "name": "Eastgate", "phone_number": "760-798-0191", "state": "CA", "total_units": "42", "photo_url": "https://sdcounty.maps.arcgis.com/sharing/rest/content/items/7af48319d4dc467aa6e6701c7bdbd1d0/data", "pbv_text": null, "community_website": "https://www.affirmedhousing.com/completed/eastgate/", "objectid": 9, "status": "Existing" }, "geometry": { "type": "Point", "coordinates": [ -117.179190510259488, 33.135319976212415 ] } },
{ "type": "Feature", "properties": { "zip": 92028, "unit_types": "1-3 BR", "ami_chart": "https://sdcounty.maps.arcgis.com/sharing/rest/content/items/256f12145b53451988c00728a1d3fdab/data", "website2_pbv": "", "address": "901 Alturas Road", "data_as_of": 1730332800000, "ces_text": null, "city": "Fallbrook", "website_text": "Webpage (non-County site)", "occupants_served": "Individuals/families", "max_ami": "50%", "website2_ces": "", "name": "Fallbrook View", "phone_number": "760-728-5742", "state": "CA", "total_units": "80", "photo_url": "https://sdcounty.maps.arcgis.com/sharing/rest/content/items/f8c06b5ca7f647219acedc74f10c3b96/data", "pbv_text": null, "community_website": "https://chworks.org/property/fallbrook-view/", "objectid": 10, "status": "Existing" }, "geometry": { "type": "Point", "coordinates": [ -117.258718002325622, 33.375479011775667 ] } },
{ "type": "Feature", "properties": { "zip": 92071, "unit_types": "1-3 BR", "ami_chart": "https://sdcounty.maps.arcgis.com/sharing/rest/content/items/e99077df3b454a6fb79c88a6232daefc/data", "website2_pbv": "", "address": "9560 Via Zapador", "data_as_of": 1730332800000, "ces_text": null, "city": "Santee", "website_text": "Webpage (non-County site)", "occupants_served": "Individuals/families", "max_ami": "60%", "website2_ces": "", "name": "Forester Square ", "phone_number": "619-749-6538", "state": "CA", "total_units": "44", "photo_url": "https://sdcounty.maps.arcgis.com/sharing/rest/content/items/f071771000f54653870919606e434b96/data", "pbv_text": null, "community_website": "https://www.wakelandhdc.com/forester-square.html", "objectid": 11, "status": "Existing" }, "geometry": { "type": "Point", "coordinates": [ -116.988631977897853, 32.835936409933851 ] } },
{ "type": "Feature", "properties": { "zip": 92020, "unit_types": "1 BR", "ami_chart": "https://sdcounty.maps.arcgis.com/sharing/rest/content/items/2a56ce898e9e47d6b980334648830be2/data", "website2_pbv": "https://www.sandiegocounty.gov/content/sdc/sdhcd/community-development/pbv.html", "address": "735 El Cajon Blvd", "data_as_of": 1730332800000, "ces_text": null, "city": "El Cajon", "website_text": null, "occupants_served": "Senior Veterans experiencing homelessness, Project-Based Vouchers", "max_ami": "40%", "website2_ces": "", "name": "Genesis", "phone_number": "858-694-4801", "state": "CA", "total_units": "9", "photo_url": "https://sdcounty.maps.arcgis.com/sharing/rest/content/items/bcd2277adcc34bb589e3634d79091dfd/data", "pbv_text": "For more information on Project-Based Vouchers", "community_website": "", "objectid": 12, "status": "Existing" }, "geometry": { "type": "Point", "coordinates": [ -116.975051204794539, 32.787104031225752 ] } },
{ "type": "Feature", "properties": { "zip": 92028, "unit_types": "1-2 BR", "ami_chart": "https://sdcounty.maps.arcgis.com/sharing/rest/content/items/e99077df3b454a6fb79c88a6232daefc/data", "website2_pbv": "", "address": "234 West Kalmia St", "data_as_of": 1730332800000, "ces_text": null, "city": "Fallbrook", "website_text": null, "occupants_served": "Seniors 62+", "max_ami": "60%", "website2_ces": "", "name": "Kalmia Courtyards ", "phone_number": "619-646-5397", "state": "CA", "total_units": "28", "photo_url": "https://sdcounty.maps.arcgis.com/sharing/rest/content/items/39063b38644d40399f754813e44f30c9/data", "pbv_text": null, "community_website": "", "objectid": 13, "status": "Existing" }, "geometry": { "type": "Point", "coordinates": [ -117.253269611281041, 33.385100895944909 ] } },
{ "type": "Feature", "properties": { "zip": 92040, "unit_types": "Studio - 1 BR", "ami_chart": "https://sdcounty.maps.arcgis.com/sharing/rest/content/items/256f12145b53451988c00728a1d3fdab/data", "website2_pbv": "", "address": "12219 Roberts Way", "data_as_of": 1730332800000, "ces_text": null, "city": "Lakeside", "website_text": "Webpage (non-County site)", "occupants_served": "Seniors 55+", "max_ami": "50%", "website2_ces": "", "name": "Lakeside Gardens ", "phone_number": "619-443-2150", "state": "CA", "total_units": "85", "photo_url": "https://sdcounty.maps.arcgis.com/sharing/rest/content/items/6d00ae16a9674a2aabf8bba204f119c4/data", "pbv_text": null, "community_website": "https://falkenberg-gilliam.com/property/lakeside-gardens/", "objectid": 14, "status": "Existing" }, "geometry": { "type": "Point", "coordinates": [ -116.927780403891589, 32.857700977915954 ] } },
{ "type": "Feature", "properties": { "zip": 91977, "unit_types": "2 BR", "ami_chart": "https://sdcounty.maps.arcgis.com/sharing/rest/content/items/bd9dc8fda8c14eb592f764bf2d620c90/data", "website2_pbv": "", "address": "9146 Lamar St", "data_as_of": 1730332800000, "ces_text": null, "city": "Spring Valley", "website_text": "Webpage (non-County site)", "occupants_served": "Individuals/families", "max_ami": "80%", "website2_ces": "", "name": "Lamar Garden Townhomes", "phone_number": "619-464-7046", "state": "CA", "total_units": "6", "photo_url": "https://sdcounty.maps.arcgis.com/sharing/rest/content/items/474d26c247904c168fe2f9627202e495/data", "pbv_text": null, "community_website": "https://www.lamargardentownhomes.com/", "objectid": 15, "status": "Existing" }, "geometry": { "type": "Point", "coordinates": [ -117.001982390422043, 32.740208331285665 ] } },
{ "type": "Feature", "properties": { "zip": 92064, "unit_types": "1 BR", "ami_chart": "https://sdcounty.maps.arcgis.com/sharing/rest/content/items/256f12145b53451988c00728a1d3fdab/data", "website2_pbv": "", "address": "12740 Gateway Park Rd", "data_as_of": 1730332800000, "ces_text": null, "city": "Poway", "website_text": "Webpage (non-County site)", "occupants_served": "Seniors 55+", "max_ami": "50%", "website2_ces": "", "name": "Los Arcos Senior Apartments ", "phone_number": "858-385-9123", "state": "CA", "total_units": "84", "photo_url": "https://sdcounty.maps.arcgis.com/sharing/rest/content/items/2771304908674038a75cdf3ab1eca291/data", "pbv_text": null, "community_website": "https://rhf.org/los-arcos/", "objectid": 16, "status": "Existing" }, "geometry": { "type": "Point", "coordinates": [ -117.056611327123818, 32.999364379796788 ] } },
{ "type": "Feature", "properties": { "zip": 92040, "unit_types": "2-3 BR", "ami_chart": "https://sdcounty.maps.arcgis.com/sharing/rest/content/items/e99077df3b454a6fb79c88a6232daefc/data", "website2_pbv": "", "address": "12709 Mapleview St", "data_as_of": 1730332800000, "ces_text": null, "city": "Lakeside", "website_text": "Webpage (non-County site)", "occupants_served": "Individuals/families, Supportive Housing", "max_ami": "60%", "website2_ces": "", "name": "Maplewood Apartments ", "phone_number": "619-561-8732", "state": "CA", "total_units": "79", "photo_url": "https://sdcounty.maps.arcgis.com/sharing/rest/content/items/de6d73201f3349219ba6e4207a1b17a4/data", "pbv_text": null, "community_website": "https://chworks.org/apartment-details/maplewood", "objectid": 17, "status": "Existing" }, "geometry": { "type": "Point", "coordinates": [ -116.916997655454466, 32.863202112740659 ] } },
{ "type": "Feature", "properties": { "zip": 92115, "unit_types": "2-3 BR", "ami_chart": "https://sdcounty.maps.arcgis.com/sharing/rest/content/items/e99077df3b454a6fb79c88a6232daefc/data", "website2_pbv": "", "address": "4340 44th Street", "data_as_of": 1730332800000, "ces_text": null, "city": "San Diego", "website_text": null, "occupants_served": "Individuals/families", "max_ami": "60%", "website2_ces": "", "name": "Mid-City Apartments", "phone_number": "619-432-1297", "state": "CA", "total_units": "78", "photo_url": "https://sdcounty.maps.arcgis.com/sharing/rest/content/items/1d451bf2a0cf4d5392d98fa2089d5131/data", "pbv_text": null, "community_website": "", "objectid": 18, "status": "Existing" }, "geometry": { "type": "Point", "coordinates": [ -117.100526358834259, 32.756077950158769 ] } },
{ "type": "Feature", "properties": { "zip": 92173, "unit_types": "1-3 BR", "ami_chart": "https://sdcounty.maps.arcgis.com/sharing/rest/content/items/cdbf6da324f94dd79b0e495a709520e4/data", "website2_pbv": "", "address": "429 West San Ysidro Blvd", "data_as_of": 1730332800000, "ces_text": "Developments that include units for persons experiencing homelessness go through Coordinated Entry System. *County does not track availability.", "city": "San Ysidro", "website_text": "Webpage (non-County site)", "occupants_served": "Permanent Supportive Housing for Persons experiencing homelessness", "max_ami": "25%", "website2_ces": "https://211.my.site.com/s/search#keyword=Coordinated%20Entry%20Access%20Site", "name": "Milejo Village", "phone_number": "619-914-4121", "state": "CA", "total_units": "65", "photo_url": "https://sdcounty.maps.arcgis.com/sharing/rest/content/items/d50d32e9c459491bb8ee696251480a5c/data", "pbv_text": null, "community_website": "https://www.jamboreehousing.com/blogs/affordable-housing-developer-partner/milejo-village", "objectid": 19, "status": "Existing" }, "geometry": { "type": "Point", "coordinates": [ -117.052886545280202, 32.556125343706945 ] } },
{ "type": "Feature", "properties": { "zip": 92065, "unit_types": "1-4 BR", "ami_chart": "https://sdcounty.maps.arcgis.com/sharing/rest/content/items/e99077df3b454a6fb79c88a6232daefc/data", "website2_pbv": "", "address": "1464 Montecito Rd", "data_as_of": 1730332800000, "ces_text": null, "city": "Ramona", "website_text": "Webpage (non-County site)", "occupants_served": "Individuals/families", "max_ami": "60%", "website2_ces": "", "name": "Montecito Village", "phone_number": "760-789-6666", "state": "CA", "total_units": "70", "photo_url": "https://sdcounty.maps.arcgis.com/sharing/rest/content/items/d684a50804a34a4198f7e522080f5755/data", "pbv_text": null, "community_website": "https://www.laspalmashousing.com/montecito-village/", "objectid": 20, "status": "Existing" }, "geometry": { "type": "Point", "coordinates": [ -116.878030155548672, 33.038191805282381 ] } },
{ "type": "Feature", "properties": { "zip": 92154, "unit_types": "Studio", "ami_chart": "https://sdcounty.maps.arcgis.com/sharing/rest/content/items/1dc620bb19df47f89cc02602713bbd09/data", "website2_pbv": "", "address": "1120 Nestor Way", "data_as_of": 1730332800000, "ces_text": "Developments that include units for persons experiencing homelessness go through Coordinated Entry System. *County does not track availability.", "city": "San Diego", "website_text": "Webpage (non-County site)", "occupants_served": "Seniors 55+", "max_ami": "30%", "website2_ces": "https://211.my.site.com/s/search#keyword=Coordinated%20Entry%20Access%20Site", "name": "Nestor", "phone_number": "909-483-2444", "state": "CA", "total_units": "74", "photo_url": "https://sdcounty.maps.arcgis.com/sharing/rest/content/items/53535b4af0114031a5ec84368429cf49/data", "pbv_text": null, "community_website": "https://nationalcore.org/communities/nestor-senior-village/", "objectid": 21, "status": "Existing" }, "geometry": { "type": "Point", "coordinates": [ -117.085018223977826, 32.575729836774009 ] } },
{ "type": "Feature", "properties": { "zip": 92083, "unit_types": "1-3 BR", "ami_chart": "https://sdcounty.maps.arcgis.com/sharing/rest/content/items/e99077df3b454a6fb79c88a6232daefc/data", "website2_pbv": "", "address": "501 South Santa Fe Ave", "data_as_of": 1730332800000, "ces_text": null, "city": "Vista", "website_text": "Webpage (non-County site)", "occupants_served": "Individuals/families", "max_ami": "60%", "website2_ces": "", "name": "Paseo Artist Village", "phone_number": "760-294-9130", "state": "CA", "total_units": "60", "photo_url": "https://sdcounty.maps.arcgis.com/sharing/rest/content/items/d80e0fc40b084bcd9d3771a3de902c01/data", "pbv_text": null, "community_website": "https://chworks.org/property/paseo-artist-village/", "objectid": 22, "status": "Existing" }, "geometry": { "type": "Point", "coordinates": [ -117.240021790828195, 33.197111637677679 ] } },
{ "type": "Feature", "properties": { "zip": 92021, "unit_types": "1 BR", "ami_chart": "https://sdcounty.maps.arcgis.com/sharing/rest/content/items/27de2d27c00b48369fe8298f7ae58986/data", "website2_pbv": "", "address": "1231 Persimmon Terrace", "data_as_of": 1730332800000, "ces_text": null, "city": "El Cajon", "website_text": null, "occupants_served": "Seniors 55+", "max_ami": "75%", "website2_ces": "", "name": "Persimmon Terrace ", "phone_number": "619-579-2448", "state": "CA", "total_units": "14", "photo_url": "https://sdcounty.maps.arcgis.com/sharing/rest/content/items/f5cf2eca855d4ca1af8a70642e1bfb9c/data", "pbv_text": null, "community_website": "", "objectid": 23, "status": "Existing" }, "geometry": { "type": "Point", "coordinates": [ -116.938741457514283, 32.811379329465076 ] } },
{ "type": "Feature", "properties": { "zip": 91977, "unit_types": "2 BR", "ami_chart": "https://sdcounty.maps.arcgis.com/sharing/rest/content/items/256f12145b53451988c00728a1d3fdab/data", "website2_pbv": "", "address": "9211 Amys St", "data_as_of": 1730332800000, "ces_text": null, "city": "Spring Valley", "website_text": "Webpage (non-County site)", "occupants_served": "Individuals/families", "max_ami": "50%", "website2_ces": "", "name": "Presioca Villa ", "phone_number": "619-463-4667", "state": "CA", "total_units": "94", "photo_url": "https://sdcounty.maps.arcgis.com/sharing/rest/content/items/a0c1a61ad10c47428f7c0a69ad1b3020/data", "pbv_text": null, "community_website": "https://presiocavilla.sdihf.org/", "objectid": 24, "status": "Existing" }, "geometry": { "type": "Point", "coordinates": [ -117.000779638776422, 32.719999843976282 ] } },
{ "type": "Feature", "properties": { "zip": 92083, "unit_types": "2 BR", "ami_chart": "https://sdcounty.maps.arcgis.com/sharing/rest/content/items/e99077df3b454a6fb79c88a6232daefc/data", "website2_pbv": "", "address": "2240, 2260 Primrose Ave", "data_as_of": 1730332800000, "ces_text": null, "city": "Vista", "website_text": null, "occupants_served": "Individuals/families", "max_ami": "60%", "website2_ces": "", "name": "Primrose", "phone_number": "760-941-6545 ext. 203", "state": "CA", "total_units": "22", "photo_url": "https://sdcounty.maps.arcgis.com/sharing/rest/content/items/4f9f6cba3ef94eeb9bbab3b72f129a88/data", "pbv_text": null, "community_website": "", "objectid": 25, "status": "Existing" }, "geometry": { "type": "Point", "coordinates": [ -117.207616297355017, 33.169001595273073 ] } },
{ "type": "Feature", "properties": { "zip": 92065, "unit_types": "1-2 BR", "ami_chart": "https://sdcounty.maps.arcgis.com/sharing/rest/content/items/256f12145b53451988c00728a1d3fdab/data", "website2_pbv": "https://www.sandiegocounty.gov/content/sdc/sdhcd/community-development/pbv.html", "address": "430 16th Street", "data_as_of": 1730332800000, "ces_text": null, "city": "Ramona", "website_text": null, "occupants_served": "Seniors 62+, Project-Based Vouchers", "max_ami": "50%", "website2_ces": "", "name": "Schmale Family Senior Residence", "phone_number": "858-694-4801", "state": "CA", "total_units": "62", "photo_url": "https://sdcounty.maps.arcgis.com/sharing/rest/content/items/89e023800be94176a3ac3335c53c3bcc/data", "pbv_text": "For more information on Project-Based Vouchers", "community_website": "", "objectid": 26, "status": "Existing" }, "geometry": { "type": "Point", "coordinates": [ -116.87608275494982, 33.035779271131425 ] } },
{ "type": "Feature", "properties": { "zip": 92028, "unit_types": "2-3 BR", "ami_chart": "https://sdcounty.maps.arcgis.com/sharing/rest/content/items/3fae663770e24c7b94d4376afce53173/data", "website2_pbv": "", "address": "435 Alturas Road", "data_as_of": 1730332800000, "ces_text": null, "city": "Fallbrook", "website_text": null, "occupants_served": "Individuals/families", "max_ami": "65%", "website2_ces": "", "name": "Springbrook Grove Apartments ", "phone_number": "760-731-2889", "state": "CA", "total_units": "44", "photo_url": "https://sdcounty.maps.arcgis.com/sharing/rest/content/items/87ed31a2bce34a66bcd35d5caf8f01fe/data", "pbv_text": null, "community_website": "", "objectid": 27, "status": "Existing" }, "geometry": { "type": "Point", "coordinates": [ -117.258833624218937, 33.378570949994398 ] } },
{ "type": "Feature", "properties": { "zip": 92028, "unit_types": "1-2 BR", "ami_chart": "https://sdcounty.maps.arcgis.com/sharing/rest/content/items/bd9dc8fda8c14eb592f764bf2d620c90/data", "website2_pbv": "", "address": "818 E Alvarado Street", "data_as_of": 1730332800000, "ces_text": null, "city": "Fallbrook", "website_text": "Webpage (non-County site)", "occupants_served": "Individuals/families", "max_ami": "80%", "website2_ces": "", "name": "Summer Ridge Apartments ", "phone_number": "858-565-6400 Ext 120", "state": "CA", "total_units": "95", "photo_url": "https://sdcounty.maps.arcgis.com/sharing/rest/content/items/cc51f645520b429d8255f322fbf7417b/data", "pbv_text": null, "community_website": "https://www.mcproperties.us/property/summer-ridge-apartments-", "objectid": 28, "status": "Existing" }, "geometry": { "type": "Point", "coordinates": [ -117.241749602880446, 33.382879101125482 ] } },
{ "type": "Feature", "properties": { "zip": 92020, "unit_types": "2 BR", "ami_chart": "https://sdcounty.maps.arcgis.com/sharing/rest/content/items/bd9dc8fda8c14eb592f764bf2d620c90/data", "website2_pbv": "", "address": "228 Chambers Street", "data_as_of": 1730332800000, "ces_text": null, "city": "El Cajon", "website_text": null, "occupants_served": "Individuals/families", "max_ami": "80%", "website2_ces": "", "name": "Torrey Apts", "phone_number": "619-442-9634", "state": "CA", "total_units": "51", "photo_url": "https://sdcounty.maps.arcgis.com/sharing/rest/content/items/c38a0130bb2e405d8bb823942f4fcf8b/data", "pbv_text": null, "community_website": "", "objectid": 29, "status": "Existing" }, "geometry": { "type": "Point", "coordinates": [ -116.967757509287424, 32.796917338424464 ] } },
{ "type": "Feature", "properties": { "zip": 92025, "unit_types": "Studio", "ami_chart": "https://sdcounty.maps.arcgis.com/sharing/rest/content/items/e99077df3b454a6fb79c88a6232daefc/data", "website2_pbv": "", "address": "337 East Valley Parkway", "data_as_of": 1730332800000, "ces_text": "Developments that include units for persons experiencing homelessness go through Coordinated Entry System. *County does not track availability.", "city": "Escondido", "website_text": "Webpage (non-County site)", "occupants_served": "Seniors 62+", "max_ami": "60%", "website2_ces": "https://211.my.site.com/s/search#keyword=Coordinated%20Entry%20Access%20Site", "name": "Valley Senior Village", "phone_number": "760-884-4168", "state": "CA", "total_units": "50", "photo_url": "https://sdcounty.maps.arcgis.com/sharing/rest/content/items/3be7d40a19a14610b63261da5ba37fdb/data", "pbv_text": null, "community_website": "https://www.liveatvalleyseniorvillage.com/", "objectid": 30, "status": "Existing" }, "geometry": { "type": "Point", "coordinates": [ -117.07811810592996, 33.124318745003073 ] } },
{ "type": "Feature", "properties": { "zip": 92064, "unit_types": "1-2 BR", "ami_chart": "https://sdcounty.maps.arcgis.com/sharing/rest/content/items/e99077df3b454a6fb79c88a6232daefc/data", "website2_pbv": "https://www.sandiegocounty.gov/content/sdc/sdhcd/community-development/pbv.html", "address": "12341 Oak Knoll Rd.", "data_as_of": 1730332800000, "ces_text": null, "city": "Poway", "website_text": null, "occupants_served": "Persons with developmental disabilities, Project-Based Vouchers", "max_ami": "60%", "website2_ces": "", "name": "Villa de Vida", "phone_number": "858-694-4801", "state": "CA", "total_units": "54", "photo_url": "https://sdcounty.maps.arcgis.com/sharing/rest/content/items/0aa0a850327a4af1af1a500c089f8231/data", "pbv_text": "For more information on Project-Based Vouchers", "community_website": "", "objectid": 31, "status": "Existing" }, "geometry": { "type": "Point", "coordinates": [ -117.063613305602857, 32.949791594066596 ] } },
{ "type": "Feature", "properties": { "zip": 92040, "unit_types": "2-3 BR", "ami_chart": "https://sdcounty.maps.arcgis.com/sharing/rest/content/items/e99077df3b454a6fb79c88a6232daefc/data", "website2_pbv": "https://www.sandiegocounty.gov/content/sdc/sdhcd/community-development/pbv.html", "address": "12606 Lakeshore Drive", "data_as_of": 1730332800000, "ces_text": null, "city": "Lakeside", "website_text": null, "occupants_served": "Individuals/families, Project-Based Vouchers", "max_ami": "60%", "website2_ces": "", "name": "Villa Lakeshore ", "phone_number": "619-390-6448", "state": "CA", "total_units": "34", "photo_url": "https://sdcounty.maps.arcgis.com/sharing/rest/content/items/c6034ec377b54f40a4cab06684d3020d/data", "pbv_text": "For more information on Project-Based Vouchers", "community_website": "", "objectid": 32, "status": "Existing" }, "geometry": { "type": "Point", "coordinates": [ -116.919205672128541, 32.860720286080337 ] } },
{ "type": "Feature", "properties": { "zip": 92069, "unit_types": "1-3 BR", "ami_chart": "https://sdcounty.maps.arcgis.com/sharing/rest/content/items/e99077df3b454a6fb79c88a6232daefc/data", "website2_pbv": "", "address": "339-340 Marcos St", "data_as_of": 1730332800000, "ces_text": null, "city": "San Marcos", "website_text": "Webpage (non-County site)", "occupants_served": "Individuals/families, Transition Age Youth", "max_ami": "60%", "website2_ces": "", "name": "Villa Serena Phase I", "phone_number": "760-744-2450", "state": "CA", "total_units": "85", "photo_url": "https://sdcounty.maps.arcgis.com/sharing/rest/content/items/bda498aa63084596b1bc834eddecf682/data", "pbv_text": null, "community_website": "https://www.liveatvillaserena1.com/", "objectid": 33, "status": "Existing" }, "geometry": { "type": "Point", "coordinates": [ -117.170778999723808, 33.14580827955789 ] } },
{ "type": "Feature", "properties": { "zip": 92011, "unit_types": "2-3 BR", "ami_chart": "https://sdcounty.maps.arcgis.com/sharing/rest/content/items/e99077df3b454a6fb79c88a6232daefc/data", "website2_pbv": "", "address": "6408 Halyard Place", "data_as_of": 1730332800000, "ces_text": null, "city": "Carlsbad", "website_text": "Webpage (non-County site)", "occupants_served": "Individuals/families, Persons with development disabilities", "max_ami": "60%", "website2_ces": "", "name": "Vista Las Flores", "phone_number": "760-602-0548", "state": "CA", "total_units": "28", "photo_url": "https://sdcounty.maps.arcgis.com/sharing/rest/content/items/05226418bf9944a79a28dbb68b8d018b/data", "pbv_text": null, "community_website": "https://vistalasflores.sdihf.org/", "objectid": 34, "status": "Existing" }, "geometry": { "type": "Point", "coordinates": [ -117.299558705433299, 33.118988013460367 ] } },
{ "type": "Feature", "properties": { "zip": 92083, "unit_types": "2-3 BR", "ami_chart": "https://sdcounty.maps.arcgis.com/sharing/rest/content/items/256f12145b53451988c00728a1d3fdab/data", "website2_pbv": "https://www.sandiegocounty.gov/content/sdc/sdhcd/community-development/pbv.html", "address": "987 Postal Way", "data_as_of": 1730332800000, "ces_text": null, "city": "Vista", "website_text": null, "occupants_served": "Persons with disabilities, Project-Based Vouchers", "max_ami": "50%", "website2_ces": "", "name": "Vista Terrace ", "phone_number": "858-694-4801", "state": "CA", "total_units": "48", "photo_url": "https://sdcounty.maps.arcgis.com/sharing/rest/content/items/4517d3e9f2b441b48f9926d80f3055fd/data", "pbv_text": "For more information on Project-Based Vouchers", "community_website": "", "objectid": 35, "status": "Existing" }, "geometry": { "type": "Point", "coordinates": [ -117.231244513081805, 33.190900625878342 ] } },
{ "type": "Feature", "properties": { "zip": 92040, "unit_types": "1 BR", "ami_chart": "https://sdcounty.maps.arcgis.com/sharing/rest/content/items/256f12145b53451988c00728a1d3fdab/data", "website2_pbv": "", "address": "9430 Winter Gardens Blvd", "data_as_of": 1730332800000, "ces_text": null, "city": "Lakeside", "website_text": null, "occupants_served": "Seniors 62+", "max_ami": "50%", "website2_ces": "", "name": "Windmill Senior Villas ", "phone_number": "619-938-0472", "state": "CA", "total_units": "10", "photo_url": "https://sdcounty.maps.arcgis.com/sharing/rest/content/items/81ae62536e404871867f355faf5fdb08/data", "pbv_text": null, "community_website": "", "objectid": 36, "status": "Existing" }, "geometry": { "type": "Point", "coordinates": [ -116.931654323788024, 32.848829186331514 ] } },
{ "type": "Feature", "properties": { "zip": 92008, "unit_types": "Studio - 3 BR", "ami_chart": "https://sdcounty.maps.arcgis.com/sharing/rest/content/items/e99077df3b454a6fb79c88a6232daefc/data", "website2_pbv": "", "address": "3606 Harding St. & 965 Oak Ave", "data_as_of": 1730332800000, "ces_text": "Developments that include units for persons experiencing homelessness go through Coordinated Entry System. *County does not track availability.", "city": "Carlsbad", "website_text": "Webpage (non-County site)", "occupants_served": "Individuals/families, Persons experiencing homelessness, Veterans", "max_ami": "60%", "website2_ces": "https://211.my.site.com/s/search#keyword=Coordinated%20Entry%20Access%20Site", "name": "Windsor Pointe", "phone_number": "760-273-0061", "state": "CA", "total_units": "50", "photo_url": "https://sdcounty.maps.arcgis.com/sharing/rest/content/items/bfa7f74535264105b3b58e3d93bd3707/data", "pbv_text": null, "community_website": "https://www.affirmedhousing.com/completed/windsor-pointe/", "objectid": 37, "status": "Existing" }, "geometry": { "type": "Point", "coordinates": [ -117.33924605626548, 33.15554766601835 ] } },
{ "type": "Feature", "properties": { "zip": 92111, "unit_types": "Studio - 1 BR", "ami_chart": "https://sdcounty.maps.arcgis.com/sharing/rest/content/items/256f12145b53451988c00728a1d3fdab/data", "website2_pbv": "", "address": "6950 Levant Street", "data_as_of": 1730332800000, "ces_text": null, "city": "San Diego", "website_text": "Webpage (non-County site)", "occupants_served": "Seniors 55+", "max_ami": "50%", "website2_ces": "", "name": "Levant Senior Cottages", "phone_number": "858-341-2194", "state": "CA", "total_units": "127", "photo_url": "https://sdcounty.maps.arcgis.com/sharing/rest/content/items/a49829a6c330438e802f6826161fa604/data", "pbv_text": null, "community_website": "https://www.levantseniorcottages.com/", "objectid": 38, "status": "Existing" }, "geometry": { "type": "Point", "coordinates": [ -117.168598463781905, 32.792181470893347 ] } },
{ "type": "Feature", "properties": { "zip": 92069, "unit_types": "1-3 BR", "ami_chart": "https://sdcounty.maps.arcgis.com/sharing/rest/content/items/bd9dc8fda8c14eb592f764bf2d620c90/data", "website2_pbv": "", "address": "604 Richmar Ave", "data_as_of": 1730332800000, "ces_text": null, "city": "San Marcos", "website_text": "Webpage (non-County site)", "occupants_served": "Individuals/families", "max_ami": "80%", "website2_ces": "", "name": "Estrella", "phone_number": "858-679-2828", "state": "CA", "total_units": "96", "photo_url": "https://sdcounty.maps.arcgis.com/sharing/rest/content/items/7a92a6a2c4df478382c75833ec9dcb2a/data", "pbv_text": null, "community_website": "https://www.affirmedhousing.com/coming-soon/", "objectid": 39, "status": "Existing" }, "geometry": { "type": "Point", "coordinates": [ -117.173291625162321, 33.146602589628195 ] } },
{ "type": "Feature", "properties": { "zip": 92107, "unit_types": "Studio - 1 BR", "ami_chart": "https://sdcounty.maps.arcgis.com/sharing/rest/content/items/1dc620bb19df47f89cc02602713bbd09/data", "website2_pbv": "", "address": "2147 Abbott St.", "data_as_of": 1730332800000, "ces_text": "Developments that include units for persons experiencing homelessness go through Coordinated Entry System. *County does not track availability.", "city": "San Diego", "website_text": "Webpage (non-County site)", "occupants_served": "Persons experiencing homelessness", "max_ami": "30%", "website2_ces": "https://211.my.site.com/s/search#keyword=Coordinated%20Entry%20Access%20Site", "name": "Abbott Street Apts", "phone_number": "619-235-2296", "state": "CA", "total_units": "13", "photo_url": "https://sdcounty.maps.arcgis.com/sharing/rest/content/items/22068ffd893b4550aea8aa2e1dac7769/data", "pbv_text": null, "community_website": "https://www.wakelandhdc.com/our-developments.html", "objectid": 40, "status": "Existing" }, "geometry": { "type": "Point", "coordinates": [ -117.24903753840259, 32.75208703960643 ] } },
{ "type": "Feature", "properties": { "zip": 92083, "unit_types": "Studio", "ami_chart": "https://sdcounty.maps.arcgis.com/sharing/rest/content/items/e99077df3b454a6fb79c88a6232daefc/data", "website2_pbv": "", "address": "2357 S. Santa Fe Ave", "data_as_of": 1730332800000, "ces_text": null, "city": "Vista", "website_text": "Webpage (non-County site)", "occupants_served": "Seniors 55+, Seniors with developmental disabilities, Seniors experiencing homelessness", "max_ami": "60%", "website2_ces": "", "name": "La Sabila", "phone_number": "", "state": "CA", "total_units": "85", "photo_url": "https://sdcounty.maps.arcgis.com/sharing/rest/content/items/bddc47fa2be0410998278702997984f3/data", "pbv_text": null, "community_website": "https://www.wakelandhdc.com/our-developments-897717-758249.html", "objectid": 41, "status": "Under Construction" }, "geometry": { "type": "Point", "coordinates": [ -117.206759145846718, 33.166365814590698 ] } },
{ "type": "Feature", "properties": { "zip": 92117, "unit_types": "Studio - 1 BR", "ami_chart": "https://sdcounty.maps.arcgis.com/sharing/rest/content/items/9aed349d8ab24e37933dba05a10fba56/data", "website2_pbv": "", "address": "5255 Mt. Etna Dr", "data_as_of": 1730332800000, "ces_text": null, "city": "San Diego", "website_text": "Webpage (non-County site)", "occupants_served": "Seniors 62+", "max_ami": "70%", "website2_ces": "", "name": "Messina", "phone_number": "", "state": "CA", "total_units": "79", "photo_url": "https://sdcounty.maps.arcgis.com/sharing/rest/content/items/bddc47fa2be0410998278702997984f3/data", "pbv_text": null, "community_website": "https://5255mtetnadrive.com/", "objectid": 42, "status": "Under Construction" }, "geometry": { "type": "Point", "coordinates": [ -117.184035533183646, 32.820414971915852 ] } },
{ "type": "Feature", "properties": { "zip": 92117, "unit_types": "1-3 BR", "ami_chart": "https://sdcounty.maps.arcgis.com/sharing/rest/content/items/e99077df3b454a6fb79c88a6232daefc/data", "website2_pbv": "", "address": "5255 Mt. Etna Dr", "data_as_of": 1730332800000, "ces_text": null, "city": "San Diego", "website_text": "Webpage (non-County site)", "occupants_served": "Individuals/families", "max_ami": "60%", "website2_ces": "", "name": "Modica", "phone_number": "", "state": "CA", "total_units": "94", "photo_url": "https://sdcounty.maps.arcgis.com/sharing/rest/content/items/bddc47fa2be0410998278702997984f3/data", "pbv_text": null, "community_website": "https://5255mtetnadrive.com/", "objectid": 43, "status": "Under Construction" }, "geometry": { "type": "Point", "coordinates": [ -117.184035533183646, 32.820414971915852 ] } },
{ "type": "Feature", "properties": { "zip": 92115, "unit_types": "Studio - 2 BR", "ami_chart": "https://sdcounty.maps.arcgis.com/sharing/rest/content/items/1dc620bb19df47f89cc02602713bbd09/data", "website2_pbv": "", "address": "5476 El Cajon Blvd", "data_as_of": 1730332800000, "ces_text": "Developments that include units for persons experiencing homelessness go through Coordinated Entry System. *County does not track availability.", "city": "San Diego", "website_text": "Webpage (non-County site)", "occupants_served": "Persons experiencing homelessness", "max_ami": "30%", "website2_ces": "https://211.my.site.com/s/search#keyword=Coordinated%20Entry%20Access%20Site", "name": "PATH Villas", "phone_number": "", "state": "CA", "total_units": "41", "photo_url": "https://sdcounty.maps.arcgis.com/sharing/rest/content/items/bddc47fa2be0410998278702997984f3/data", "pbv_text": null, "community_website": "https://epath.org/path-ventures/", "objectid": 44, "status": "Under Construction" }, "geometry": { "type": "Point", "coordinates": [ -117.076763559556937, 32.758414802217416 ] } },
{ "type": "Feature", "properties": { "zip": 91950, "unit_types": "", "ami_chart": "https://sdcounty.maps.arcgis.com/sharing/rest/content/items/256f12145b53451988c00728a1d3fdab/data", "website2_pbv": "", "address": "2542, 2544, 2546 Ridgeway Dr", "data_as_of": 1730332800000, "ces_text": null, "city": "National City", "website_text": null, "occupants_served": "Individuals/families", "max_ami": "50%", "website2_ces": "", "name": "Ridgeway Drive", "phone_number": "858-427-1452", "state": "CA", "total_units": "5", "photo_url": "https://sdcounty.maps.arcgis.com/sharing/rest/content/items/bddc47fa2be0410998278702997984f3/data", "pbv_text": null, "community_website": "", "objectid": 45, "status": "Under Construction" }, "geometry": { "type": "Point", "coordinates": [ -117.075142981500335, 32.66531066106166 ] } },
{ "type": "Feature", "properties": { "zip": 92083, "unit_types": "Studio - 1 BR", "ami_chart": "https://sdcounty.maps.arcgis.com/sharing/rest/content/items/2a56ce898e9e47d6b980334648830be2/data", "website2_pbv": "https://www.sandiegocounty.gov/content/sdc/sdhcd/community-development/pbv.html", "address": "414-428 N. Santa Fe Ave", "data_as_of": 1730332800000, "ces_text": null, "city": "Vista", "website_text": "Webpage (non-County site)", "occupants_served": "Seniors 62+, Project-Based Vouchers", "max_ami": "40%", "website2_ces": "", "name": "Santa Fe Senior Village", "phone_number": "858-694-4801", "state": "CA", "total_units": "54", "photo_url": "https://sdcounty.maps.arcgis.com/sharing/rest/content/items/bddc47fa2be0410998278702997984f3/data", "pbv_text": "For more information on Project-Based Vouchers", "community_website": "https://nationalcore.org/communities/santafeseniorvillage/", "objectid": 46, "status": "Under Construction" }, "geometry": { "type": "Point", "coordinates": [ -117.245461357100751, 33.205381503408546 ] } },
{ "type": "Feature", "properties": { "zip": 92105, "unit_types": "Studio - 1 BR", "ami_chart": "https://sdcounty.maps.arcgis.com/sharing/rest/content/items/e99077df3b454a6fb79c88a6232daefc/data", "website2_pbv": "", "address": "4030 43rd St", "data_as_of": 1730332800000, "ces_text": "Developments that include units for persons experiencing homelessness go through Coordinated Entry System. *County does not track availability.", "city": "San Diego", "website_text": "Webpage (non-County site)", "occupants_served": "Persons experiencing homelessness", "max_ami": "60%", "website2_ces": "https://211.my.site.com/s/search#keyword=Coordinated%20Entry%20Access%20Site", "name": "Serenade on 43rd", "phone_number": "", "state": "CA", "total_units": "65", "photo_url": "https://sdcounty.maps.arcgis.com/sharing/rest/content/items/bddc47fa2be0410998278702997984f3/data", "pbv_text": null, "community_website": "https://www.wakelandhdc.com/our-developments.html", "objectid": 47, "status": "Under Construction" }, "geometry": { "type": "Point", "coordinates": [ -117.1023490752399, 32.750217474076777 ] } },
{ "type": "Feature", "properties": { "zip": 92117, "unit_types": "1-3 BR", "ami_chart": "https://sdcounty.maps.arcgis.com/sharing/rest/content/items/bd9dc8fda8c14eb592f764bf2d620c90/data", "website2_pbv": "", "address": "5255 Mt. Etna Dr", "data_as_of": 1730332800000, "ces_text": null, "city": "San Diego", "website_text": "Webpage (non-County site)", "occupants_served": "Individuals/families", "max_ami": "80%", "website2_ces": "", "name": "Taormina", "phone_number": "", "state": "CA", "total_units": "136", "photo_url": "https://sdcounty.maps.arcgis.com/sharing/rest/content/items/bddc47fa2be0410998278702997984f3/data", "pbv_text": null, "community_website": "https://5255mtetnadrive.com/", "objectid": 48, "status": "Under Construction" }, "geometry": { "type": "Point", "coordinates": [ -117.184035533183646, 32.820414971915852 ] } },
{ "type": "Feature", "properties": { "zip": 92173, "unit_types": "1-3 BR", "ami_chart": "https://sdcounty.maps.arcgis.com/sharing/rest/content/items/e99077df3b454a6fb79c88a6232daefc/data", "website2_pbv": "", "address": "1663 Dairy Mart Road", "data_as_of": 1730332800000, "ces_text": "Developments that include units for persons experiencing homelessness go through Coordinated Entry System. *County does not track availability.", "city": "San Diego", "website_text": "Webpage (non-County site)", "occupants_served": "Individuals/families, Persons experiencing homelessness", "max_ami": "60%", "website2_ces": "https://211.my.site.com/s/search#keyword=Coordinated%20Entry%20Access%20Site", "name": "The Iris at San Ysidro", "phone_number": "909-483-2444", "state": "CA", "total_units": "100", "photo_url": "https://sdcounty.maps.arcgis.com/sharing/rest/content/items/bddc47fa2be0410998278702997984f3/data", "pbv_text": null, "community_website": "https://nationalcore.org/communities/the-iris/", "objectid": 49, "status": "Under Construction" }, "geometry": { "type": "Point", "coordinates": [ -117.061869797674234, 32.565669445766268 ] } },
{ "type": "Feature", "properties": { "zip": 92069, "unit_types": "1-3 BR", "ami_chart": "https://sdcounty.maps.arcgis.com/sharing/rest/content/items/e99077df3b454a6fb79c88a6232daefc/data", "website2_pbv": "", "address": "339 Marcos St.", "data_as_of": 1730332800000, "ces_text": null, "city": "San Marcos", "website_text": "Webpage (non-County site)", "occupants_served": "Individuals/families, Persons experiencing homelessness", "max_ami": "60%", "website2_ces": "", "name": "Villa Serena Phase II", "phone_number": "", "state": "CA", "total_units": "63", "photo_url": "https://sdcounty.maps.arcgis.com/sharing/rest/content/items/bddc47fa2be0410998278702997984f3/data", "pbv_text": null, "community_website": "https://nationalcore.org/communities/villa-serena-2/", "objectid": 50, "status": "Under Construction" }, "geometry": { "type": "Point", "coordinates": [ -117.169256504692086, 33.145434192668532 ] } },
{ "type": "Feature", "properties": { "zip": 92110, "unit_types": "Studio", "ami_chart": "https://sdcounty.maps.arcgis.com/sharing/rest/content/items/1dc620bb19df47f89cc02602713bbd09/data", "website2_pbv": "", "address": "3737 Midway Drive", "data_as_of": 1730332800000, "ces_text": null, "city": "San Diego", "website_text": "Webpage (non-County site)", "occupants_served": "Persons experiencing homelessness, Veterans", "max_ami": "30%", "website2_ces": "", "name": "Pacific Village", "phone_number": "(619) 231-9400", "state": "CA", "total_units": "63", "photo_url": "https://sdcounty.maps.arcgis.com/sharing/rest/content/items/bddc47fa2be0410998278702997984f3/data", "pbv_text": null, "community_website": "https://sdhc.org/about-us/contact-us/", "objectid": 51, "status": "Under Construction" }, "geometry": { "type": "Point", "coordinates": [ -117.217652745410689, 32.752978899329868 ] } },
{ "type": "Feature", "properties": { "zip": 92108, "unit_types": "Studio", "ami_chart": "https://sdcounty.maps.arcgis.com/sharing/rest/content/items/1dc620bb19df47f89cc02602713bbd09/data", "website2_pbv": "", "address": "2087 Hotel Circle South", "data_as_of": 1730332800000, "ces_text": null, "city": "San Diego", "website_text": "Webpage (non-County site)", "occupants_served": "Persons experiencing homelessness", "max_ami": "30%", "website2_ces": "", "name": "Presidio Palms", "phone_number": "(619) 231-9400", "state": "CA", "total_units": "163", "photo_url": "https://sdcounty.maps.arcgis.com/sharing/rest/content/items/bddc47fa2be0410998278702997984f3/data", "pbv_text": null, "community_website": "https://sdhc.org/about-us/contact-us/", "objectid": 52, "status": "Under Construction" }, "geometry": { "type": "Point", "coordinates": [ -117.181213092786322, 32.757643337055214 ] } },
{ "type": "Feature", "properties": { "zip": 92028, "unit_types": "1-2 BR", "ami_chart": "https://sdcounty.maps.arcgis.com/sharing/rest/content/items/256f12145b53451988c00728a1d3fdab/data", "website2_pbv": "", "address": "528 E. Alvarado St.", "data_as_of": 1730332800000, "ces_text": "Developments that include units for persons experiencing homelessness go through Coordinated Entry System. *County does not track availability.", "city": "Fallbrook", "website_text": "Webpage (non-County site)", "occupants_served": "Seniors 62+, Seniors experiencing homelessness", "max_ami": "50%", "website2_ces": "https://211.my.site.com/s/search#keyword=Coordinated%20Entry%20Access%20Site", "name": "Alvarado", "phone_number": "", "state": "CA", "total_units": "54", "photo_url": "https://sdcounty.maps.arcgis.com/sharing/rest/content/items/bddc47fa2be0410998278702997984f3/data", "pbv_text": null, "community_website": "https://www.sdchc.org/projects/alvarado-senior-village", "objectid": 53, "status": "Under Construction" }, "geometry": { "type": "Point", "coordinates": [ -117.246239215314816, 33.382997453868654 ] } },
{ "type": "Feature", "properties": { "zip": 91977, "unit_types": "1-2 BR", "ami_chart": "https://sdcounty.maps.arcgis.com/sharing/rest/content/items/e99077df3b454a6fb79c88a6232daefc/data", "website2_pbv": "", "address": "8956 Harness St", "data_as_of": 1730332800000, "ces_text": null, "city": "Spring Valley", "website_text": "Webpage (non-County site)", "occupants_served": "Seniors 55+", "max_ami": "60%", "website2_ces": "", "name": "Peppertree Senior Apartments", "phone_number": "619-870-0150", "state": "CA", "total_units": "104", "photo_url": "https://sdcounty.maps.arcgis.com/sharing/rest/content/items/2a940473a7ea4d93837a2fb8572efa8a/data", "pbv_text": null, "community_website": "https://www.peppertreeisyourhome.com/", "objectid": 54, "status": "Existing" }, "geometry": { "type": "Point", "coordinates": [ -117.006335133936375, 32.720311737993661 ] } },
{ "type": "Feature", "properties": { "zip": 91977, "unit_types": "Studio - 2 BR", "ami_chart": "https://sdcounty.maps.arcgis.com/sharing/rest/content/items/e99077df3b454a6fb79c88a6232daefc/data", "website2_pbv": "", "address": "8885 Orville St, ", "data_as_of": 1730332800000, "ces_text": null, "city": "Spring Valley", "website_text": "Webpage (non-County site)", "occupants_served": "Individuals/families", "max_ami": "60%", "website2_ces": "", "name": "Spring Valley Apts", "phone_number": "619-741-1032", "state": "CA", "total_units": "60", "photo_url": "https://sdcounty.maps.arcgis.com/sharing/rest/content/items/dc1ea91ebcb24e51bdd1494f44d9c31b/data", "pbv_text": null, "community_website": "https://www.liveatspringvalley.com/", "objectid": 55, "status": "Existing" }, "geometry": { "type": "Point", "coordinates": [ -117.007883677017091, 32.708296058891428 ] } },
{ "type": "Feature", "properties": { "zip": 91977, "unit_types": "1-2 BR", "ami_chart": "https://sdcounty.maps.arcgis.com/sharing/rest/content/items/e99077df3b454a6fb79c88a6232daefc/data", "website2_pbv": "", "address": "8760 Jamacha Road", "data_as_of": 1730332800000, "ces_text": null, "city": "Spring Valley", "website_text": "Webpage (non-County site)", "occupants_served": "Individuals/families", "max_ami": "60%", "website2_ces": "", "name": "Spring Villas", "phone_number": "619-713-9331", "state": "CA", "total_units": "136", "photo_url": "https://sdcounty.maps.arcgis.com/sharing/rest/content/items/297184b515b046d0b63a8abbc8b01dc4/data", "pbv_text": null, "community_website": "https://www.springvillasapartments.com/", "objectid": 56, "status": "Existing" }, "geometry": { "type": "Point", "coordinates": [ -117.01085773826766, 32.716051207433274 ] } },
{ "type": "Feature", "properties": { "zip": 92114, "unit_types": "2-3 BR", "ami_chart": "https://sdcounty.maps.arcgis.com/sharing/rest/content/items/bd9dc8fda8c14eb592f764bf2d620c90/data", "website2_pbv": "", "address": "5930 Division St", "data_as_of": 1730332800000, "ces_text": null, "city": "San Diego", "website_text": "Webpage (non-County site)", "occupants_served": "Individuals/families", "max_ami": "80%", "website2_ces": "", "name": "Valencia Pointe", "phone_number": "619-501-2555", "state": "CA", "total_units": "102", "photo_url": "https://sdcounty.maps.arcgis.com/sharing/rest/content/items/a7129ad03a1343c980bfb0bdf7c50b35/data", "pbv_text": null, "community_website": "https://maacproject.org/valenciapointe/", "objectid": 57, "status": "Existing" }, "geometry": { "type": "Point", "coordinates": [ -117.069507495261576, 32.694861812001861 ] } },
{ "type": "Feature", "properties": { "zip": 92127, "unit_types": "1-3 BR", "ami_chart": "https://sdcounty.maps.arcgis.com/sharing/rest/content/items/7f7e3079361845ebb51052558b0a9acf/data", "website2_pbv": "", "address": "10411 Reserve Drive", "data_as_of": 1730332800000, "ces_text": null, "city": "San Diego", "website_text": "Webpage (non-County site)", "occupants_served": "Individuals/families", "max_ami": "120%", "website2_ces": "", "name": "The Reserve at 4S Ranch", "phone_number": "858-312-5180", "state": "CA", "total_units": "308", "photo_url": "https://sdcounty.maps.arcgis.com/sharing/rest/content/items/93b7b9fb7e2b4069a2b406667e8b35c1/data", "pbv_text": null, "community_website": "https://www.thereserve4s.com/contactus", "objectid": 58, "status": "Existing" }, "geometry": { "type": "Point", "coordinates": [ -117.116798530835538, 33.020807194007268 ] } },
{ "type": "Feature", "properties": { "zip": 92025, "unit_types": "1-3 BR", "ami_chart": "https://sdcounty.maps.arcgis.com/sharing/rest/content/items/e99077df3b454a6fb79c88a6232daefc/data", "website2_pbv": "https://www.sandiegocounty.gov/content/sdc/sdhcd/community-development/pbv.html", "address": "1540 South Escondido Blvd", "data_as_of": 1730332800000, "ces_text": null, "city": "Escondido", "website_text": null, "occupants_served": "Veterans, Project-Based Vouchers", "max_ami": "60%", "website2_ces": "", "name": "Veterans Village of San Diego", "phone_number": "858-694-4801", "state": "CA", "total_units": "54", "photo_url": "https://sdcounty.maps.arcgis.com/sharing/rest/content/items/bceece5f44da460c96981b1f6ab5a49f/data", "pbv_text": "For more information on Project-Based Vouchers", "community_website": "", "objectid": 59, "status": "Existing" }, "geometry": { "type": "Point", "coordinates": [ -117.074338872054938, 33.107794484117925 ] } },
{ "type": "Feature", "properties": { "zip": 91977, "unit_types": "2-4 BR", "ami_chart": "https://sdcounty.maps.arcgis.com/sharing/rest/content/items/256f12145b53451988c00728a1d3fdab/data", "website2_pbv": "", "address": "9119 Jamacha Road", "data_as_of": 1730332800000, "ces_text": null, "city": "Spring Valley", "website_text": "Webpage (non-County site)", "occupants_served": "Individuals/families", "max_ami": "50%", "website2_ces": "", "name": "San Martin De Porres ", "phone_number": "619-589-5431", "state": "CA", "total_units": "116", "photo_url": "https://sdcounty.maps.arcgis.com/sharing/rest/content/items/6f7a9c8abaa348b0b926f95b2561eb2c/data", "pbv_text": null, "community_website": "https://maacproject.org/housing/", "objectid": 60, "status": "Existing" }, "geometry": { "type": "Point", "coordinates": [ -117.003210907170953, 32.714269793254232 ] } },
{ "type": "Feature", "properties": { "zip": 92028, "unit_types": "1-2 BR", "ami_chart": "https://sdcounty.maps.arcgis.com/sharing/rest/content/items/bd9dc8fda8c14eb592f764bf2d620c90/data", "website2_pbv": "https://www.sandiegocounty.gov/content/sdc/sdhcd/community-development/pbv.html", "address": "1101 Alturas Rd", "data_as_of": 1730332800000, "ces_text": null, "city": "Fallbrook", "website_text": null, "occupants_served": "Individuals/families, Project-Based Vouchers", "max_ami": "80%", "website2_ces": "", "name": "Pine View Apartments ", "phone_number": "760-654-6731", "state": "CA", "total_units": "101", "photo_url": "https://sdcounty.maps.arcgis.com/sharing/rest/content/items/0365e886fbb1460895bdd148d5e2f7fb/data", "pbv_text": "For more information on Project-Based Vouchers", "community_website": "", "objectid": 61, "status": "Existing" }, "geometry": { "type": "Point", "coordinates": [ -117.259290511260403, 33.372614769683089 ] } },
{ "type": "Feature", "properties": { "zip": 92084, "unit_types": "1-2 BR", "ami_chart": "https://sdcounty.maps.arcgis.com/sharing/rest/content/items/e99077df3b454a6fb79c88a6232daefc/data", "website2_pbv": "", "address": "815 Civic Center Dr", "data_as_of": 1730332800000, "ces_text": null, "city": "Vista", "website_text": "Webpage (non-County site)", "occupants_served": "Seniors 62+", "max_ami": "60%", "website2_ces": "", "name": "The Grove", "phone_number": "760-295-0057", "state": "CA", "total_units": "81", "photo_url": "https://sdcounty.maps.arcgis.com/sharing/rest/content/items/240ee37cc55b40708464956249d9343d/data", "pbv_text": null, "community_website": "https://www.wakelandhdc.com/the-grove.html", "objectid": 62, "status": "Existing" }, "geometry": { "type": "Point", "coordinates": [ -117.234808994935122, 33.195147914190336 ] } },
{ "type": "Feature", "properties": { "zip": 92173, "unit_types": "1-3 BR", "ami_chart": "https://sdcounty.maps.arcgis.com/sharing/rest/content/items/e99077df3b454a6fb79c88a6232daefc/data", "website2_pbv": "", "address": "160 West Seaward Ave", "data_as_of": 1730332800000, "ces_text": null, "city": "San Ysidro", "website_text": "Webpage (non-County site)", "occupants_served": "Individuals/families", "max_ami": "60%", "website2_ces": "", "name": "Paseo la Paz", "phone_number": "619-349-0351", "state": "CA", "total_units": "139", "photo_url": "https://sdcounty.maps.arcgis.com/sharing/rest/content/items/c87e1f92aba54a94a3626f5052200487/data", "pbv_text": null, "community_website": "https://www.conam.com/property/paseo-la-paz/", "objectid": 63, "status": "Existing" }, "geometry": { "type": "Point", "coordinates": [ -117.046172880760196, 32.556190873219329 ] } },
{ "type": "Feature", "properties": { "zip": 92069, "unit_types": "1-3 BR", "ami_chart": "https://sdcounty.maps.arcgis.com/sharing/rest/content/items/e99077df3b454a6fb79c88a6232daefc/data", "website2_pbv": "", "address": "609 Richmar Ave", "data_as_of": 1730332800000, "ces_text": null, "city": "San Marcos", "website_text": "Webpage (non-County site)", "occupants_served": "Individuals/families", "max_ami": "60%", "website2_ces": "", "name": "Ventaliso Apartments ", "phone_number": "760-798-1035", "state": "CA", "total_units": "48", "photo_url": "https://sdcounty.maps.arcgis.com/sharing/rest/content/items/ea6f97a2abb641cb8a2f890ca9c38e11/data", "pbv_text": null, "community_website": "https://www.affirmedhousing.com/completed/ventaliso/", "objectid": 64, "status": "Existing" }, "geometry": { "type": "Point", "coordinates": [ -117.172123909044544, 33.145681304928196 ] } },
{ "type": "Feature", "properties": { "zip": 92064, "unit_types": "1-2 BR", "ami_chart": "https://sdcounty.maps.arcgis.com/sharing/rest/content/items/e99077df3b454a6fb79c88a6232daefc/data", "website2_pbv": "", "address": "13098 Poway Road", "data_as_of": 1730332800000, "ces_text": null, "city": "Poway", "website_text": "Webpage (non-County site)", "occupants_served": "Seniors 62+, Veterans", "max_ami": "60%", "website2_ces": "", "name": "Apollo", "phone_number": "858-218-2197", "state": "CA", "total_units": "44", "photo_url": "https://sdcounty.maps.arcgis.com/sharing/rest/content/items/44bd7d11404d44739e60e4c61786beb6/data", "pbv_text": null, "community_website": "https://www.conam.com/property/apollo-apartments/", "objectid": 65, "status": "Existing" }, "geometry": { "type": "Point", "coordinates": [ -117.047605363606039, 32.956706523646645 ] } },
{ "type": "Feature", "properties": { "zip": 92064, "unit_types": "1-2 BR", "ami_chart": "https://sdcounty.maps.arcgis.com/sharing/rest/content/items/256f12145b53451988c00728a1d3fdab/data", "website2_pbv": "", "address": "13150 Pomerado Road", "data_as_of": 1730332800000, "ces_text": null, "city": "Poway", "website_text": "Webpage (non-County site)", "occupants_served": "Seniors 55+", "max_ami": "50%", "website2_ces": "", "name": "Brookview Village Senior Apartments", "phone_number": "858-668-1777", "state": "CA", "total_units": "102", "photo_url": "https://sdcounty.maps.arcgis.com/sharing/rest/content/items/1f07b824da8b4d0e888a90e64cbc461a/data", "pbv_text": null, "community_website": "https://brookview.sdihf.org/", "objectid": 66, "status": "Existing" }, "geometry": { "type": "Point", "coordinates": [ -117.062703177979074, 32.954201439268566 ] } },
{ "type": "Feature", "properties": { "zip": 92083, "unit_types": "2-4 BR", "ami_chart": "https://sdcounty.maps.arcgis.com/sharing/rest/content/items/256f12145b53451988c00728a1d3fdab/data", "website2_pbv": "", "address": "245 Cedar Rd", "data_as_of": 1730332800000, "ces_text": null, "city": "Vista", "website_text": "Webpage (non-County site)", "occupants_served": "Individuals/families", "max_ami": "50%", "website2_ces": "", "name": "Cedar Apartments", "phone_number": "760-945-3507", "state": "CA", "total_units": "40", "photo_url": "https://sdcounty.maps.arcgis.com/sharing/rest/content/items/f271459286b74c8984208adc6484d750/data", "pbv_text": null, "community_website": "https://chworks.org/property/cedar-nettleton/", "objectid": 67, "status": "Existing" }, "geometry": { "type": "Point", "coordinates": [ -117.284233364271472, 33.191209818596114 ] } },
{ "type": "Feature", "properties": { "zip": 92078, "unit_types": "1-3 BR", "ami_chart": "https://sdcounty.maps.arcgis.com/sharing/rest/content/items/e99077df3b454a6fb79c88a6232daefc/data", "website2_pbv": "", "address": "1730 Elfin Forest Road", "data_as_of": 1730332800000, "ces_text": null, "city": "San Marcos", "website_text": "Webpage (non-County site)", "occupants_served": "Individuals/families", "max_ami": "60%", "website2_ces": "", "name": "Copper Creek Apartments ", "phone_number": "760-510-0210", "state": "CA", "total_units": "204", "photo_url": "https://sdcounty.maps.arcgis.com/sharing/rest/content/items/6eeaae1ca5bf41e1ba7c2cd92beff02a/data", "pbv_text": null, "community_website": "https://bridgehousing.com/properties/copper-creek/", "objectid": 68, "status": "Existing" }, "geometry": { "type": "Point", "coordinates": [ -117.196739251774233, 33.096419430304515 ] } },
{ "type": "Feature", "properties": { "zip": 92040, "unit_types": "2-3 BR", "ami_chart": "https://sdcounty.maps.arcgis.com/sharing/rest/content/items/e99077df3b454a6fb79c88a6232daefc/data", "website2_pbv": "", "address": "9757 Marilla Dr", "data_as_of": 1730332800000, "ces_text": null, "city": "Lakeside", "website_text": "Webpage (non-County site)", "occupants_served": "Individuals/families", "max_ami": "60%", "website2_ces": "", "name": "SilverSage Apartments", "phone_number": "619-561-2023", "state": "CA", "total_units": "80", "photo_url": "https://sdcounty.maps.arcgis.com/sharing/rest/content/items/38ca1bd2fd3c422da417d56a424c04ab/data", "pbv_text": null, "community_website": "https://www.silversageapts.com/", "objectid": 69, "status": "Existing" }, "geometry": { "type": "Point", "coordinates": [ -116.940517394408559, 32.854098019918254 ] } },
{ "type": "Feature", "properties": { "zip": 92064, "unit_types": "1-3 BR", "ami_chart": "https://sdcounty.maps.arcgis.com/sharing/rest/content/items/e99077df3b454a6fb79c88a6232daefc/data", "website2_pbv": "", "address": "13414 Community Road", "data_as_of": 1730332800000, "ces_text": null, "city": "Poway", "website_text": "Webpage (non-County site)", "occupants_served": "Individuals/families", "max_ami": "60%", "website2_ces": "", "name": "Solara Apartments ", "phone_number": "858-748-0200", "state": "CA", "total_units": "56", "photo_url": "https://sdcounty.maps.arcgis.com/sharing/rest/content/items/2b75a21d9f5f4601882b1cdde4ebe349/data", "pbv_text": null, "community_website": "https://chworks.org/apartment-details/solara", "objectid": 70, "status": "Existing" }, "geometry": { "type": "Point", "coordinates": [ -117.040849359713022, 32.959194392966978 ] } },
{ "type": "Feature", "properties": { "zip": 92054, "unit_types": "Studio - 1 BR", "ami_chart": "https://sdcounty.maps.arcgis.com/sharing/rest/content/items/1dc620bb19df47f89cc02602713bbd09/data", "website2_pbv": "", "address": "563 Greenbrier Drive", "data_as_of": 1730332800000, "ces_text": "Developments that include units for persons experiencing homelessness go through Coordinated Entry System. *County does not track availability.", "city": "Oceanside", "website_text": "Webpage (non-County site)", "occupants_served": "Individuals/families, Transition Age Youth, Persons experiencing homelessness", "max_ami": "30%", "website2_ces": "https://211.my.site.com/s/search#keyword=Coordinated%20Entry%20Access%20Site", "name": "Greenbrier", "phone_number": "909-483-2444", "state": "CA", "total_units": "60", "photo_url": "https://sdcounty.maps.arcgis.com/sharing/rest/content/items/cabf34d0bc93442397faa37448aadf4c/data", "pbv_text": null, "community_website": "https://nationalcore.org/communities/greenbrier-village/", "objectid": 71, "status": "Existing" }, "geometry": { "type": "Point", "coordinates": [ -117.355982341040004, 33.195334607702733 ] } },
{ "type": "Feature", "properties": { "zip": 92011, "unit_types": "1-3 BR", "ami_chart": "https://sdcounty.maps.arcgis.com/sharing/rest/content/items/e99077df3b454a6fb79c88a6232daefc/data", "website2_pbv": "", "address": "1380 Laurel Tree Lane", "data_as_of": 1730332800000, "ces_text": null, "city": "Carlsbad", "website_text": "Webpage (non-County site)", "occupants_served": "Individuals/families", "max_ami": "60%", "website2_ces": "", "name": "Vista Azul", "phone_number": "619-231-6300", "state": "CA", "total_units": "70", "photo_url": "https://sdcounty.maps.arcgis.com/sharing/rest/content/items/dc6d030bd315417bb2d6317a56ab7fc7/data", "pbv_text": null, "community_website": "https://www.vistaazulcarlsbad.com/", "objectid": 72, "status": "Existing" }, "geometry": { "type": "Point", "coordinates": [ -117.301533808638482, 33.121388450315074 ] } },
{ "type": "Feature", "properties": { "zip": 92101, "unit_types": "Studio - 2 BR", "ami_chart": "https://sdcounty.maps.arcgis.com/sharing/rest/content/items/256f12145b53451988c00728a1d3fdab/data", "website2_pbv": "", "address": "1590  Kettner Blvd", "data_as_of": 1730332800000, "ces_text": null, "city": "San Diego", "website_text": "Webpage (non-County site)", "occupants_served": "Seniors 62+", "max_ami": "50%", "website2_ces": "", "name": "Kettner Crossing", "phone_number": "619-231-6300", "state": "CA", "total_units": "64", "photo_url": "https://sdcounty.maps.arcgis.com/sharing/rest/content/items/bddc47fa2be0410998278702997984f3/data", "pbv_text": null, "community_website": "https://bridgehousing.com/properties/kettner-crossing-2/", "objectid": 73, "status": "Under Construction" }, "geometry": { "type": "Point", "coordinates": [ -117.169400348131461, 32.721840965366525 ] } },
{ "type": "Feature", "properties": { "zip": 92102, "unit_types": "1-3 BR", "ami_chart": "https://sdcounty.maps.arcgis.com/sharing/rest/content/items/e99077df3b454a6fb79c88a6232daefc/data", "website2_pbv": "", "address": "323, 333, 335, 337, 338 Willie James Jones Ave", "data_as_of": 1730332800000, "ces_text": "Developments that include units for persons experiencing homelessness go through Coordinated Entry System. *County does not track availability.", "city": "San Diego", "website_text": "Webpage (non-County site)", "occupants_served": "Individuals/families", "max_ami": "60%", "website2_ces": "https://211.my.site.com/s/search#keyword=Coordinated%20Entry%20Access%20Site", "name": "Southwest Village", "phone_number": "", "state": "CA", "total_units": "81", "photo_url": "https://sdcounty.maps.arcgis.com/sharing/rest/content/items/bddc47fa2be0410998278702997984f3/data", "pbv_text": null, "community_website": "https://www.relatedcalifornia.com/our-company/properties/southwest-village", "objectid": 74, "status": "Under Construction" }, "geometry": { "type": "Point", "coordinates": [ -117.088431801662495, 32.706917394568293 ] } },
{ "type": "Feature", "properties": { "zip": 91950, "unit_types": "1-3 BR", "ami_chart": "https://sdcounty.maps.arcgis.com/sharing/rest/content/items/e99077df3b454a6fb79c88a6232daefc/data", "website2_pbv": "", "address": "2312 F Ave", "data_as_of": 1730332800000, "ces_text": null, "city": "National City", "website_text": "Webpage (non-County site)", "occupants_served": "Individuals/families, Veterans", "max_ami": "60%", "website2_ces": "", "name": "Union Tower", "phone_number": "619-235-2296", "state": "CA", "total_units": "94", "photo_url": "https://sdcounty.maps.arcgis.com/sharing/rest/content/items/bddc47fa2be0410998278702997984f3/data", "pbv_text": null, "community_website": "https://www.wakelandhdc.com/our-developments.html", "objectid": 75, "status": "Under Construction" }, "geometry": { "type": "Point", "coordinates": [ -117.095900226126048, 32.664512420240627 ] } },
{ "type": "Feature", "properties": { "zip": 92105, "unit_types": "2-3 BR", "ami_chart": "https://sdcounty.maps.arcgis.com/sharing/rest/content/items/e99077df3b454a6fb79c88a6232daefc/data", "website2_pbv": "", "address": "4020 44th Street", "data_as_of": 1730332800000, "ces_text": null, "city": "San Diego", "website_text": "Webpage (non-County site)", "occupants_served": "Individuals/families", "max_ami": "60%", "website2_ces": "", "name": "City Heights Place", "phone_number": "619-648-8387", "state": "CA", "total_units": "60", "photo_url": "https://sdcounty.maps.arcgis.com/sharing/rest/content/items/65370cf7a7db4e51b3eb983852d61061/data", "pbv_text": null, "community_website": "https://www.cityheightsplace.com/", "objectid": 76, "status": "Existing" }, "geometry": { "type": "Point", "coordinates": [ -117.100043620944916, 32.749985032263247 ] } },
{ "type": "Feature", "properties": { "zip": 92113, "unit_types": "1-3 BR", "ami_chart": "https://sdcounty.maps.arcgis.com/sharing/rest/content/items/e99077df3b454a6fb79c88a6232daefc/data", "website2_pbv": "", "address": "1436 South 40th St.", "data_as_of": 1730332800000, "ces_text": null, "city": "San Diego", "website_text": "Webpage (non-County site)", "occupants_served": "Veterans experiencing homelessness, Families experiencing homelessness ", "max_ami": "60%", "website2_ces": "", "name": "Vista del Puente", "phone_number": "619-264-0334", "state": "CA", "total_units": "52", "photo_url": "https://sdcounty.maps.arcgis.com/sharing/rest/content/items/1d37f657fdb04c54a7cc6f4f892fc142/data", "pbv_text": null, "community_website": "https://www.liveatvistadelpuente.com/", "objectid": 77, "status": "Existing" }, "geometry": { "type": "Point", "coordinates": [ -117.108311378484842, 32.691862702551134 ] } },
{ "type": "Feature", "properties": { "zip": 92071, "unit_types": "2-3 BR", "ami_chart": "https://sdcounty.maps.arcgis.com/sharing/rest/content/items/e99077df3b454a6fb79c88a6232daefc/data", "website2_pbv": "", "address": "11085 Woodside Ave", "data_as_of": 1730332800000, "ces_text": null, "city": "Santee", "website_text": "Webpage (non-County site)", "occupants_served": "Individuals/families", "max_ami": "60%", "website2_ces": "", "name": "Shadow Hill", "phone_number": "619-449-9091", "state": "CA", "total_units": "82", "photo_url": "https://sdcounty.maps.arcgis.com/sharing/rest/content/items/66f05895d2d94ddaa8b1eb851d7cf785/data", "pbv_text": null, "community_website": "https://www.liveatshadowhill.com/", "objectid": 78, "status": "Existing" }, "geometry": { "type": "Point", "coordinates": [ -116.954527942322187, 32.84767745678991 ] } },
{ "type": "Feature", "properties": { "zip": 92069, "unit_types": "1-3 BR", "ami_chart": "https://sdcounty.maps.arcgis.com/sharing/rest/content/items/e99077df3b454a6fb79c88a6232daefc/data", "website2_pbv": "", "address": "366 - 456 W. Mission Road", "data_as_of": 1730332800000, "ces_text": null, "city": "San Marcos", "website_text": "Webpage (non-County site)", "occupants_served": "Individuals/families", "max_ami": "60%", "website2_ces": "", "name": "Paseo del Oro", "phone_number": "760-471-4867", "state": "CA", "total_units": "120", "photo_url": "https://sdcounty.maps.arcgis.com/sharing/rest/content/items/b19ad2c6d7c44cefa0d1c5cd72484d21/data", "pbv_text": null, "community_website": "https://www.liveatpaseodeloro.com/", "objectid": 79, "status": "Existing" }, "geometry": { "type": "Point", "coordinates": [ -117.170761026063971, 33.144839992672559 ] } },
{ "type": "Feature", "properties": { "zip": 92101, "unit_types": "Studio - 2 BR", "ami_chart": "https://sdcounty.maps.arcgis.com/sharing/rest/content/items/256f12145b53451988c00728a1d3fdab/data", "website2_pbv": "", "address": "1 14th Street", "data_as_of": 1730332800000, "ces_text": "Developments that include units for persons experiencing homelessness go through Coordinated Entry System. *County does not track availability.", "city": "San Diego", "website_text": "Webpage (non-County site)", "occupants_served": "Individuals/families, Persons experiencing homelessness", "max_ami": "50%", "website2_ces": "https://211.my.site.com/s/search#keyword=Coordinated%20Entry%20Access%20Site", "name": "St. Teresa of Calcutta Villa", "phone_number": "619-546-9945", "state": "CA", "total_units": "326", "photo_url": "https://sdcounty.maps.arcgis.com/sharing/rest/content/items/de2b433c15324eaf931c4d8d3e15b43b/data", "pbv_text": null, "community_website": "https://my.neighbor.org/take-action/hopeliveshere/", "objectid": 80, "status": "Existing" }, "geometry": { "type": "Point", "coordinates": [ -117.15169773617788, 32.706220186843645 ] } },
{ "type": "Feature", "properties": { "zip": 92154, "unit_types": "1-3 BR", "ami_chart": "https://sdcounty.maps.arcgis.com/sharing/rest/content/items/e99077df3b454a6fb79c88a6232daefc/data", "website2_pbv": "", "address": "5215, 5225, 5235 Calle Dorado", "data_as_of": 1730332800000, "ces_text": null, "city": "San Diego", "website_text": "Webpage (non-County site)", "occupants_served": "Individuals/families, Persons with disabilities", "max_ami": "60%", "website2_ces": "", "name": "Pacifica at Playa del Sol", "phone_number": "619-240-3281", "state": "CA", "total_units": "42", "photo_url": "https://sdcounty.maps.arcgis.com/sharing/rest/content/items/edee0dc176de4fd9966a9091f41dc6c2/data", "pbv_text": null, "community_website": "https://www.conam.com/property/pacifica-apartments/", "objectid": 81, "status": "Existing" }, "geometry": { "type": "Point", "coordinates": [ -117.01931984235064, 32.572792476763141 ] } },
{ "type": "Feature", "properties": { "zip": 92127, "unit_types": "1-3 BR", "ami_chart": "https://sdcounty.maps.arcgis.com/sharing/rest/content/items/e99077df3b454a6fb79c88a6232daefc/data", "website2_pbv": "", "address": "11675 George Cooke Express Dr", "data_as_of": 1730332800000, "ces_text": null, "city": "San Diego", "website_text": "Webpage (non-County site)", "occupants_served": "Individuals/families", "max_ami": "60%", "website2_ces": "", "name": "SkyLINE", "phone_number": "", "state": "CA", "total_units": "100", "photo_url": "https://sdcounty.maps.arcgis.com/sharing/rest/content/items/bddc47fa2be0410998278702997984f3/data", "pbv_text": null, "community_website": "https://www.affirmedhousing.com/coming-soon/", "objectid": 82, "status": "Under Construction" }, "geometry": { "type": "Point", "coordinates": [ -117.081101415902552, 33.016868422150246 ] } }
]
}
